[
    {
        "Altitude(m)": 622205.8391693305,
        "Argument of Periapsis(deg)": 0.0,
        "Eccentricity": 0.0,
        "Inclination(deg)": 60.0,
        "Latitude(deg)": -52.16235724827168,
        "Longitude(deg)": 52.70050432921231,
        "Mean Anomaly(deg)": -114.54549999999998,
        "RAAN(deg)": 285.0,
        "Satellite Name": "Test1 1269",
        "Satellite Number": 1269,
        "Semi-Major Axis(m)": 6980739.136638005,
        "Time(s)": 0
    },
    {
        "Altitude(m)": 622344.7453830161,
        "Argument of Periapsis(deg)": 0.00010418945913296404,
        "Eccentricity": 0.0,
        "Inclination(deg)": 60.0,
        "Latitude(deg)": -52.51993568682765,
        "Longitude(deg)": 53.481716727861794,
        "Mean Anomaly(deg)": -113.9253938545381,
        "RAAN(deg)": 284.9995799508602,
        "Satellite Name": "Test1 1269",
        "Satellite Number": 1269,
        "Semi-Major Axis(m)": 6980739.136638005,
        "Time(s)": 10
    }
]